NORAD_CAT_ID,OBJECT_NAME,OBJECT_TYPE,EPOCH,MEAN_MOTION,ECCENTRICITY,INCLINATION,RA_OF_ASC_NODE,ARG_OF_PERICENTER,MEAN_ANOMALY,BSTAR,MEAN_MOTION_DOT,MEAN_MOTION_DDOT,TLE_LINE0,TLE_LINE1,TLE_LINE2,SEMIMAJOR_AXIS,PERIOD,APOGEE,PERIGEE,DECAYED
52299.0,STARLINK-3759,PAYLOAD,2022-07-02 22:00:00,15.32233428,0.0001399,53.2176,21.7295,58.4399,255.3667,-0.02463,-0.00717351,0.0,0 STARLINK-3759,1 52299U 22041AQ  22183.91667824 -.00717351  00000-0 -24630-1 0  9997,2 52299  53.2176  21.7295 0001399  58.4399 255.3667 15.32233428  1300,6847.2869999999975,93.98,470.11,468.194,0.0
52299.0,STARLINK-3759,PAYLOAD,2022-07-03 14:00:01,15.31212501,0.0001294,53.2176,18.6301,62.0739,329.9061,-0.025366,-0.00715579,0.0,0 STARLINK-3759,1 52299U 22041AQ  22184.58334491 -.00715579  00000-0 -25366-1 0  9999,2 52299  53.2176  18.6301 0001294  62.0739 329.9061 15.31212501  1300,6850.331,94.043,473.082,471.309,0.0
52299.0,STARLINK-3759,PAYLOAD,2022-07-03 22:00:00,15.30703512,0.0001423,53.2176,17.0847,55.7853,14.3603,-0.025857,-0.00717745,0.0,0 STARLINK-3759,1 52299U 22041AQ  22184.91667824 -.00717745  00000-0 -25857-1 0  9997,2 52299  53.2176  17.0847 0001423  55.7853  14.3603 15.30703512  1301,6851.849,94.074,474.689,472.739,0.0
52299.0,STARLINK-3759,PAYLOAD,2022-07-04 14:00:01,15.29682125,0.0001415,53.2178,13.9925,65.2209,79.4215,-0.026581,-0.00714968,0.0,0 STARLINK-3759,1 52299U 22041AQ  22185.58334491 -.00714968  00000-0 -26581-1 0  9991,2 52299  53.2178  13.9925 0001415  65.2209  79.4215 15.29682125 12809,6854.899,94.137,477.734,475.794,0.0
52299.0,STARLINK-3759,PAYLOAD,2022-07-04 22:00:00,15.29171207,0.000145,53.2176,12.4508,65.2159,115.7543,-0.026938,-0.00713326,0.0,0 STARLINK-3759,1 52299U 22041AQ  22185.91667824 -.00713326  00000-0 -26938-1 0  9990,2 52299  53.2176  12.4508 0001450  65.2159 115.7543 15.29171207  1306,6856.426,94.169,479.285,477.296,0.0
52299.0,STARLINK-3759,PAYLOAD,2022-07-05 14:00:01,15.28152474,0.0001367,53.2176,9.3659,71.9139,179.8752,-0.027867,-0.00723227,0.0,0 STARLINK-3759,1 52299U 22041AQ  22186.58334491 -.00723227  00000-0 -27867-1 0  9998,2 52299  53.2176   9.3659 0001367  71.9139 179.8752 15.28152474  1304,6859.472,94.231,482.275,480.4,0.0
52299.0,STARLINK-3759,PAYLOAD,2022-07-05 22:00:00,15.27641481,0.0001336,53.2175,7.8277,69.8914,216.3871,-0.028229,-0.00721354,0.0,0 STARLINK-3759,1 52299U 22041AQ  22186.91667824 -.00721354  00000-0 -28229-1 0  9996,2 52299  53.2175   7.8277 0001336  69.8914 216.3871 15.27641481  1304,6861.002,94.263,483.784,481.95,0.0
52299.0,STARLINK-3759,PAYLOAD,2022-07-06 14:00:01,15.26623647,0.0001244,53.2177,4.75,72.7463,280.6742,-0.029282,-0.00725089,0.0,0 STARLINK-3759,1 52299U 22041AQ  22187.58334491 -.00725089  00000-0 -29282-1 0  9990,2 52299  53.2177   4.7500 0001244  72.7463 280.6742 15.26623647 13106,6864.051,94.326,486.77,485.062,0.0
52299.0,STARLINK-3759,PAYLOAD,2022-07-06 22:00:00,15.26111591,0.0001274,53.2175,3.2153,65.4732,320.599,-0.029595,-0.00721761,0.0,0 STARLINK-3759,1 52299U 22041AQ  22187.91667824 -.00721761  00000-0 -29595-1 0  9996,2 52299  53.2175   3.2153 0001274  65.4732 320.5990 15.26111591  1301,6865.587,94.357,488.326,486.577,0.0
52299.0,STARLINK-3759,PAYLOAD,2022-07-07 14:00:01,15.25093705,0.0001327,53.2176,0.145,67.391,22.1465,-0.030689,-0.00725485,0.0,0 STARLINK-3759,1 52299U 22041AQ  22188.58334491 -.00725485  00000-0 -30689-1 0  9994,2 52299  53.2176   0.1450 0001327  67.3910  22.1465 15.25093705  1303,6868.641,94.42,491.418,489.595,0.0
52299.0,STARLINK-3759,PAYLOAD,2022-07-07 22:00:00,15.24579374,0.000139,53.2174,358.6137,63.6199,56.7318,-0.030822,-0.00717967,0.0,0 STARLINK-3759,1 52299U 22041AQ  22188.91667824 -.00717967  00000-0 -30822-1 0  9995,2 52299  53.2174 358.6137 0001390  63.6199  56.7318 15.24579374  1302,6870.186,94.452,493.006,491.096,0.0
52299.0,STARLINK-3759,PAYLOAD,2022-07-08 14:00:01,15.23562485,0.0001416999999999,53.2177,355.5507,71.0629,109.0768,-0.032025,-0.00723221,0.0,0 STARLINK-3759,1 52299U 22041AQ  22189.58334491 -.00723221  00000-0 -32025-1 0  9997,2 52299  53.2177 355.5507 0001417  71.0629 109.0768 15.23562485  1308,6873.2419999999975,94.515,496.081,494.133,0.0
52299.0,STARLINK-3759,PAYLOAD,2022-07-08 22:00:01,15.23048919,0.0001375,53.2174,354.0229,74.1439,135.0345,-0.032197,-0.00716514,0.0,0 STARLINK-3759,1 52299U 22041AQ  22189.91668981 -.00716514  00000-0 -32197-1 0  9995,2 52299  53.2174 354.0229 0001375  74.1439 135.0345 15.23048919  1307,6874.7869999999975,94.547,497.598,495.707,0.0
52299.0,STARLINK-3759,PAYLOAD,2022-07-09 14:00:01,15.2203207,0.0001357,53.2176,350.9672,75.6194,189.6068,-0.033455,-0.00721964,0.0,0 STARLINK-3759,1 52299U 22041AQ  22190.58334491 -.00721964  00000-0 -33455-1 0  9999,2 52299  53.2176 350.9672 0001357  75.6194 189.6068 15.22032070  1307,6877.849,94.61,500.647,498.781,0.0
52299.0,STARLINK-3759,PAYLOAD,2022-07-09 20:00:01,15.21649054,0.0001398,53.2175,349.8241,81.4899,114.1457,-0.033786,-0.00720967,0.0,0 STARLINK-3759,1 52299U 22041AQ  22190.83334491 -.00720967  00000-0 -33786-1 0  9996,2 52299  53.2175 349.8241 0001398  81.4899 114.1457 15.21649054  1307,6879.003000000002,94.634,501.83,499.906,0.0
52299.0,STARLINK-3759,PAYLOAD,2022-07-10 14:00:01,15.20502951,0.0001315,53.2176,346.3944,65.5188,279.2786,-0.035058,-0.00723112,0.0,0 STARLINK-3759,1 52299U 22041AQ  22191.58334491 -.00723112  00000-0 -35058-1 0  9998,2 52299  53.2176 346.3944 0001315  65.5188 279.2786 15.20502951  1304,6882.459,94.706,505.23,503.419,0.0
52299.0,STARLINK-3759,PAYLOAD,2022-07-10 22:00:00,15.19991985,0.0001190999999999,53.2172,344.8734,80.3923,289.7029,-0.035458,-0.0072064999999999,0.0,0 STARLINK-3759,1 52299U 22041AQ  22191.91667824 -.00720650  00000-0 -35458-1 0  9992,2 52299  53.2172 344.8734 0001191  80.3923 289.7029 15.19991985 13760,6884.002,94.737,506.687,505.047,0.0
52299.0,STARLINK-3759,PAYLOAD,2022-07-11 14:00:01,15.18973269,0.0001372,53.2176,341.8324,61.7411,357.1126,-0.036696,-0.00723759,0.0,0 STARLINK-3759,1 52299U 22041AQ  22192.58334491 -.00723759  00000-0 -36696-1 0  9995,2 52299  53.2176 341.8324 0001372  61.7411 357.1126 15.18973269  1301,6887.079000000002,94.801,509.889,507.999,0.0
52299.0,STARLINK-3759,PAYLOAD,2022-07-11 22:00:00,15.18461964,0.0001230999999999,53.2172,340.3148,83.9866,358.3268,-0.037066,-0.00720492,0.0,0 STARLINK-3759,1 52299U 22041AQ  22192.91667824 -.00720492  00000-0 -37066-1 0  9994,2 52299  53.2172 340.3148 0001231  83.9866 358.3268 15.18461964 13924,6888.625,94.833,511.338,509.642,0.0
52299.0,STARLINK-3759,PAYLOAD,2022-07-12 14:00:01,15.17442263,0.0001453,53.2175,337.281,63.3975,63.99800000000001,-0.038271,-0.0072218999999999,0.0,0 STARLINK-3759,1 52299U 22041AQ  22193.58334491 -.00722190  00000-0 -38271-1 0  9995,2 52299  53.2175 337.2810 0001453  63.3975  63.9980 15.17442263  1306,6891.7109999999975,94.897,514.577,512.575,0.0
52299.0,STARLINK-3759,PAYLOAD,2022-07-12 22:00:00,15.1693231,0.0001330999999999,53.2172,335.7668,85.0415,63.975,-0.038779,-0.00721164,0.0,0 STARLINK-3759,1 52299U 22041AQ  22193.91667824 -.00721164  00000-0 -38779-1 0  9994,2 52299  53.2172 335.7668 0001331  85.0415  63.9750 15.16932310 14071,6893.255,94.928,516.038,514.203,0.0
52299.0,STARLINK-3759,PAYLOAD,2022-07-13 13:10:31,15.17226576,0.0001111,53.2169,332.8881,22.1279,337.9764,-0.0096995,-0.00190504,0.0,0 STARLINK-3759,1 52299U 22041AQ  22194.54897885 -.00190504  00000-0 -96995-2 0  9999,2 52299  53.2169 332.8881 0001111  22.1279 337.9764 15.17226576 12942,6892.364000000001,94.91,514.995,513.4630000000002,0.0
52299.0,STARLINK-3759,PAYLOAD,2022-07-13 22:00:00,15.15403436,0.0001357,53.2172,331.2295,89.0726,121.1316,-0.04064,-0.0072324,0.0,0 STARLINK-3759,1 52299U 22041AQ  22194.91667824 -.00723240  00000-0 -40640-1 0  9992,2 52299  53.2172 331.2295 0001357  89.0726 121.1316 15.15403436 14228,6897.891,95.024,520.692,518.82,0.0
52299.0,STARLINK-3759,PAYLOAD,2022-07-14 14:00:01,15.14380801,0.0001441999999999,53.2176,328.2104,70.1956,177.7376,-0.041582,-0.00719097,0.0,0 STARLINK-3759,1 52299U 22041AQ  22195.58334491 -.00719097  00000-0 -41582-1 0  9998,2 52299  53.2176 328.2104 0001442  70.1956 177.7376 15.14380801  1305,6900.996,95.088,523.856,521.866,0.0
52299.0,STARLINK-3759,PAYLOAD,2022-07-14 22:00:00,15.13874624,0.0001321,53.2172,326.7028,91.0457,174.831,-0.042578,-0.0072536999999999,0.0,0 STARLINK-3759,1 52299U 22041AQ  22195.91667824 -.00725370  00000-0 -42578-1 0  9991,2 52299  53.2172 326.7028 0001321  91.0457 174.8310 15.13874624  1309,6902.534000000002,95.12,525.311,523.487,0.0
52299.0,STARLINK-3759,PAYLOAD,2022-07-15 06:00:00,15.13361128,0.0001315,53.2174,325.1947,81.5653,201.6458,-0.042864,-0.00720108,0.0,0 STARLINK-3759,1 52299U 22041AQ  22196.25001157 -.00720108  00000-0 -42864-1 0  9992,2 52299  53.2174 325.1947 0001315  81.5653 201.6458 15.13361128 14428,6904.096,95.152,526.868,525.053,0.0
52299.0,STARLINK-3759,PAYLOAD,2022-07-15 14:00:01,15.12851354,0.000138,53.2175,323.6911,70.8817,229.0472,-0.043455,-0.00719669,0.0,0 STARLINK-3759,1 52299U 22041AQ  22196.58334491 -.00719669  00000-0 -43455-1 0  9995,2 52299  53.2175 323.6911 0001380  70.8817 229.0472 15.12851354  1305,6905.646,95.185,528.464,526.558,0.0
52299.0,STARLINK-3759,PAYLOAD,2022-07-15 22:00:00,15.12345019,0.0001252999999999,53.2172,322.1869,87.9281,228.1061,-0.044494,-0.00725995,0.0,0 STARLINK-3759,1 52299U 22041AQ  22196.91667824 -.00725995  00000-0 -44494-1 0  9994,2 52299  53.2172 322.1869 0001253  87.9281 228.1061 15.12345019  1301,6907.188,95.216,529.918,528.187,0.0
52299.0,STARLINK-3759,PAYLOAD,2022-07-16 06:00:00,15.11830222,0.0001268,53.2174,320.6825,80.5367,250.9939,-0.044642,-0.00718525,0.0,0 STARLINK-3759,1 52299U 22041AQ  22197.25001157 -.00718525  00000-0 -44642-1 0  9999,2 52299  53.2174 320.6825 0001268  80.5367 250.9939 15.11830222 14572,6908.755999999999,95.249,531.497,529.745,0.0
